[{"OBJECT_NAME":"SUPERVIEW NEO-2 OBJECT A","OBJECT_ID":"2026-062A","EPOCH":"2026-04-22T21:46:50.331936","MEAN_MOTION":15.19749211,"ECCENTRICITY":0.0013622,"INCLINATION":97.4339,"RA_OF_ASC_NODE":120.9903,"ARG_OF_PERICENTER":146.661,"MEAN_ANOMALY":213.5486,"EPHEMERIS_TYPE":0,"CLASSIFICATION_TYPE":"U","NORAD_CAT_ID":68377,"ELEMENT_SET_NO":999,"REV_AT_EPOCH":425,"BSTAR":9.9983e-5,"MEAN_MOTION_DOT":2.074e-5,"MEAN_MOTION_DDOT":0},{"OBJECT_NAME":"SUPERVIEW NEO-2 OBJECT B","OBJECT_ID":"2026-062B","EPOCH":"2026-04-22T07:33:31.201344","MEAN_MOTION":15.19716011,"ECCENTRICITY":0.00016899,"INCLINATION":97.4388,"RA_OF_ASC_NODE":120.4247,"ARG_OF_PERICENTER":145.8582,"MEAN_ANOMALY":214.2761,"EPHEMERIS_TYPE":0,"CLASSIFICATION_TYPE":"U","NORAD_CAT_ID":68378,"ELEMENT_SET_NO":999,"REV_AT_EPOCH":416,"BSTAR":0.00010199132,"MEAN_MOTION_DOT":2.11e-5,"MEAN_MOTION_DDOT":0},{"OBJECT_NAME":"CZ-2D R/B","OBJECT_ID":"2026-062C","EPOCH":"2026-04-22T20:00:08.382240","MEAN_MOTION":15.31513246,"ECCENTRICITY":0.0050164,"INCLINATION":97.4977,"RA_OF_ASC_NODE":121.4235,"ARG_OF_PERICENTER":323.0078,"MEAN_ANOMALY":36.7707,"EPHEMERIS_TYPE":0,"CLASSIFICATION_TYPE":"U","NORAD_CAT_ID":68379,"ELEMENT_SET_NO":999,"REV_AT_EPOCH":427,"BSTAR":0.00021151,"MEAN_MOTION_DOT":6.608e-5,"MEAN_MOTION_DDOT":0},{"OBJECT_NAME":"STARLINK-36296","OBJECT_ID":"2026-063A","EPOCH":"2026-04-22T11:16:12.626112","MEAN_MOTION":15.75211516,"ECCENTRICITY":0.0001222,"INCLINATION":97.2851,"RA_OF_ASC_NODE":254.5728,"ARG_OF_PERICENTER":54.839,"MEAN_ANOMALY":305.299,"EPHEMERIS_TYPE":0,"CLASSIFICATION_TYPE":"U","NORAD_CAT_ID":68380,"ELEMENT_SET_NO":999,"REV_AT_EPOCH":454,"BSTAR":0.0006785,"MEAN_MOTION_DOT":0.00102389,"MEAN_MOTION_DDOT":0},{"OBJECT_NAME":"STARLINK-37111","OBJECT_ID":"2026-063B","EPOCH":"2026-04-22T11:21:16.860384","MEAN_MOTION":15.75199164,"ECCENTRICITY":0.000128,"INCLINATION":97.2853,"RA_OF_ASC_NODE":254.4097,"ARG_OF_PERICENTER":99.5197,"MEAN_ANOMALY":260.6213,"EPHEMERIS_TYPE":0,"CLASSIFICATION_TYPE":"U","NORAD_CAT_ID":68381,"ELEMENT_SET_NO":999,"REV_AT_EPOCH":453,"BSTAR":0.00045116,"MEAN_MOTION_DOT":0.00067725,"MEAN_MOTION_DDOT":0},{"OBJECT_NAME":"STARLINK-36946","OBJECT_ID":"2026-063C","EPOCH":"2026-04-22T13:48:46.008864","MEAN_MOTION":15.80896243,"ECCENTRICITY":8.25e-5,"INCLINATION":97.2852,"RA_OF_ASC_NODE":254.5765,"ARG_OF_PERICENTER":68.2602,"MEAN_ANOMALY":291.8754,"EPHEMERIS_TYPE":0,"CLASSIFICATION_TYPE":"U","NORAD_CAT_ID":68382,"ELEMENT_SET_NO":999,"REV_AT_EPOCH":455,"BSTAR":0.0011433,"MEAN_MOTION_DOT":0.0022544,"MEAN_MOTION_DDOT":0},{"OBJECT_NAME":"STARLINK-37121","OBJECT_ID":"2026-063D","EPOCH":"2026-04-22T08:24:24.949728","MEAN_MOTION":15.75250456,"ECCENTRICITY":0.0001449,"INCLINATION":97.2851,"RA_OF_ASC_NODE":254.2711,"ARG_OF_PERICENTER":102.7096,"MEAN_ANOMALY":257.4332,"EPHEMERIS_TYPE":0,"CLASSIFICATION_TYPE":"U","NORAD_CAT_ID":68383,"ELEMENT_SET_NO":999,"REV_AT_EPOCH":451,"BSTAR":0.0011735,"MEAN_MOTION_DOT":0.00179091,"MEAN_MOTION_DDOT":0},{"OBJECT_NAME":"STARLINK-37137","OBJECT_ID":"2026-063E","EPOCH":"2026-04-22T13:27:49.264704","MEAN_MOTION":15.75233977,"ECCENTRICITY":9.25e-5,"INCLINATION":97.2858,"RA_OF_ASC_NODE":254.4437,"ARG_OF_PERICENTER":88.5001,"MEAN_ANOMALY":271.637,"EPHEMERIS_TYPE":0,"CLASSIFICATION_TYPE":"U","NORAD_CAT_ID":68384,"ELEMENT_SET_NO":999,"REV_AT_EPOCH":454,"BSTAR":0.00090313,"MEAN_MOTION_DOT":0.00137019,"MEAN_MOTION_DDOT":0},{"OBJECT_NAME":"STARLINK-37128","OBJECT_ID":"2026-063F","EPOCH":"2026-04-22T20:00:03.000384","MEAN_MOTION":15.75209776,"ECCENTRICITY":8.56e-5,"INCLINATION":97.2849,"RA_OF_ASC_NODE":254.8294,"ARG_OF_PERICENTER":108.4706,"MEAN_ANOMALY":229.1479,"EPHEMERIS_TYPE":0,"CLASSIFICATION_TYPE":"U","NORAD_CAT_ID":68385,"ELEMENT_SET_NO":999,"REV_AT_EPOCH":551,"BSTAR":-4.1485e-5,"MEAN_MOTION_DOT":-6.318e-5,"MEAN_MOTION_DDOT":0},{"OBJECT_NAME":"STARLINK-37198","OBJECT_ID":"2026-063G","EPOCH":"2026-04-22T11:33:28.551744","MEAN_MOTION":15.75209788,"ECCENTRICITY":0.0001402,"INCLINATION":97.285,"RA_OF_ASC_NODE":254.3977,"ARG_OF_PERICENTER":69.373,"MEAN_ANOMALY":290.7686,"EPHEMERIS_TYPE":0,"CLASSIFICATION_TYPE":"U","NORAD_CAT_ID":68386,"ELEMENT_SET_NO":999,"REV_AT_EPOCH":453,"BSTAR":0.00042109,"MEAN_MOTION_DOT":0.00063199,"MEAN_MOTION_DDOT":0},{"OBJECT_NAME":"STARLINK-37223","OBJECT_ID":"2026-063H","EPOCH":"2026-04-22T20:00:03.000384","MEAN_MOTION":15.75198615,"ECCENTRICITY":0.0001352,"INCLINATION":97.2848,"RA_OF_ASC_NODE":254.8341,"ARG_OF_PERICENTER":110.4609,"MEAN_ANOMALY":239.1557,"EPHEMERIS_TYPE":0,"CLASSIFICATION_TYPE":"U","NORAD_CAT_ID":68387,"ELEMENT_SET_NO":999,"REV_AT_EPOCH":556,"BSTAR":0.00014614,"MEAN_MOTION_DOT":0.00021732,"MEAN_MOTION_DDOT":0},{"OBJECT_NAME":"STARLINK-37203","OBJECT_ID":"2026-063J","EPOCH":"2026-04-22T13:42:16.228224","MEAN_MOTION":15.80888249,"ECCENTRICITY":5.82e-5,"INCLINATION":97.2848,"RA_OF_ASC_NODE":254.5836,"ARG_OF_PERICENTER":49.8047,"MEAN_ANOMALY":310.3272,"EPHEMERIS_TYPE":0,"CLASSIFICATION_TYPE":"U","NORAD_CAT_ID":68388,"ELEMENT_SET_NO":999,"REV_AT_EPOCH":455,"BSTAR":0.00097317,"MEAN_MOTION_DOT":0.00191033,"MEAN_MOTION_DDOT":0},{"OBJECT_NAME":"STARLINK-37197","OBJECT_ID":"2026-063K","EPOCH":"2026-04-22T13:18:40.622112","MEAN_MOTION":15.75227977,"ECCENTRICITY":0.0001103,"INCLINATION":97.285,"RA_OF_ASC_NODE":254.4514,"ARG_OF_PERICENTER":79.088,"MEAN_ANOMALY":281.0509,"EPHEMERIS_TYPE":0,"CLASSIFICATION_TYPE":"U","NORAD_CAT_ID":68389,"ELEMENT_SET_NO":999,"REV_AT_EPOCH":454,"BSTAR":0.0010145,"MEAN_MOTION_DOT":0.00154196,"MEAN_MOTION_DDOT":0},{"OBJECT_NAME":"STARLINK-37193","OBJECT_ID":"2026-063L","EPOCH":"2026-04-22T13:30:23.397120","MEAN_MOTION":15.75214467,"ECCENTRICITY":0.0001229,"INCLINATION":97.2859,"RA_OF_ASC_NODE":254.7456,"ARG_OF_PERICENTER":54.3692,"MEAN_ANOMALY":305.7688,"EPHEMERIS_TYPE":0,"CLASSIFICATION_TYPE":"U","NORAD_CAT_ID":68390,"ELEMENT_SET_NO":999,"REV_AT_EPOCH":456,"BSTAR":0.0010312,"MEAN_MOTION_DOT":0.00156701,"MEAN_MOTION_DDOT":0},{"OBJECT_NAME":"STARLINK-37216","OBJECT_ID":"2026-063M","EPOCH":"2026-04-22T14:13:03.440352","MEAN_MOTION":15.75225494,"ECCENTRICITY":8.03e-5,"INCLINATION":97.2854,"RA_OF_ASC_NODE":254.554,"ARG_OF_PERICENTER":108.1396,"MEAN_ANOMALY":251.9956,"EPHEMERIS_TYPE":0,"CLASSIFICATION_TYPE":"U","NORAD_CAT_ID":68391,"ELEMENT_SET_NO":999,"REV_AT_EPOCH":455,"BSTAR":0.00098385,"MEAN_MOTION_DOT":0.00149441,"MEAN_MOTION_DDOT":0},{"OBJECT_NAME":"STARLINK-37215","OBJECT_ID":"2026-063N","EPOCH":"2026-04-22T07:56:58.483680","MEAN_MOTION":15.75289186,"ECCENTRICITY":0.0001078,"INCLINATION":97.2849,"RA_OF_ASC_NODE":254.2961,"ARG_OF_PERICENTER":99.822,"MEAN_ANOMALY":260.3167,"EPHEMERIS_TYPE":0,"CLASSIFICATION_TYPE":"U","NORAD_CAT_ID":68392,"ELEMENT_SET_NO":999,"REV_AT_EPOCH":451,"BSTAR":0.0016039,"MEAN_MOTION_DOT":0.00247216,"MEAN_MOTION_DDOT":0}]
