SUPERVIEW NEO-2 OBJECT A
1 68377U 26062A   26112.90752699  .00002074  00000+0  99983-4 0  9990
2 68377  97.4339 120.9903 0013622 146.6610 213.5486 15.19749211  4250
SUPERVIEW NEO-2 OBJECT B
1 68378U 26062B   26112.31494446  .00002110  00000+0  10199-3 0  9991
2 68378  97.4388 120.4247 0001689 145.8582 214.2761 15.19716011  4166
STARLINK-36296
1 68380U 26063A   26112.46959058  .00102389  00000+0  67850-3 0  9991
2 68380  97.2851 254.5728 0001222  54.8390 305.2990 15.75211516  4543
STARLINK-37111
1 68381U 26063B   26112.47311181  .00067725  00000+0  45116-3 0  9997
2 68381  97.2853 254.4097 0001280  99.5197 260.6213 15.75199164  4534
STARLINK-36946
1 68382U 26063C   26112.57553251  .00225440  00000+0  11433-2 0  9999
2 68382  97.2852 254.5765 0000825  68.2602 291.8754 15.80896243  4551
STARLINK-37121
1 68383U 26063D   26112.35028877  .00179091  00000+0  11735-2 0  9992
2 68383  97.2851 254.2711 0001449 102.7096 257.4332 15.75250456  4513
STARLINK-37137
1 68384U 26063E   26112.56098686  .00137019  00000+0  90313-3 0  9995
2 68384  97.2858 254.4437 0000925  88.5001 271.6370 15.75233977  4545
STARLINK-37128
1 68385U 26063F   26112.83336806 -.00006318  00000+0 -41485-4 0  9991
2 68385  97.2849 254.8294 0000856 108.4706 229.1479 15.75209776  5514
STARLINK-37198
1 68386U 26063G   26112.48158046  .00063199  00000+0  42109-3 0  9992
2 68386  97.2850 254.3977 0001402  69.3730 290.7686 15.75209788  4538
STARLINK-37223
1 68387U 26063H   26112.83336806  .00021732  00000+0  14614-3 0  9991
2 68387  97.2848 254.8341 0001352 110.4609 239.1557 15.75198615  5567
STARLINK-37203
1 68388U 26063J   26112.57102116  .00191033  00000+0  97317-3 0  9991
2 68388  97.2848 254.5836 0000582  49.8047 310.3272 15.80888249  4558
STARLINK-37197
1 68389U 26063K   26112.55463683  .00154196  00000+0  10145-2 0  9991
2 68389  97.2850 254.4514 0001103  79.0880 281.0509 15.75227977  4549
STARLINK-37193
1 68390U 26063L   26112.56277080  .00156701  00000+0  10312-2 0  9998
2 68390  97.2859 254.7456 0001229  54.3692 305.7688 15.75214467  4568
STARLINK-37216
1 68391U 26063M   26112.59240093  .00149441  00000+0  98385-3 0  9996
2 68391  97.2854 254.5540 0000803 108.1396 251.9956 15.75225494  4553
STARLINK-37215
1 68392U 26063N   26112.33123245  .00247216  00000+0  16039-2 0  9992
2 68392  97.2849 254.2961 0001078  99.8220 260.3167 15.75289186  4511
CZ-2D R/B
1 68379U 26062C   26112.83343035  .00006608  00000+0  21151-3 0  9992
2 68379  97.4977 121.4235 0050164 323.0078  36.7707 15.31513246  4279
